#dP2021  3 18  0  0  0.00000000      96 __u+U ITR00 FIT  IAC
## 2149 345600.00000000   900.00000000 59291 0.0000000000000
+  116   C06C07C08C09C10C11C12C13C14C16C19C20C21C22C23C24C25
+        C26C27C28C29C30C32C33C34C35C36C37C38C39C40C41C42C43
+        C44C45C46E01E02E03E04E05E07E08E09E11E12E13E14E15E18
+        E19E21E24E25E26E27E30E31E33G01G02G03G04G05G06G07G08
+        G09G10G11G12G13G14G15G16G17G18G19G20G21G22G23G24G25
+        G26G27G28G29G30G31G32J01J02J03R01R02R03R04R05R07R08
+        R09R11R12R13R14R15R16R17R18R19R20R21R22R24  0  0  0
++        11  7  6  8  7  7  9  7  8  8  7  6  8  7  7  6  8
++         8  7  9  7  6  7  6  7  8  6  9  9  9  8  8 10  9
++         7  8  7  7  7  6  7  7  7  5  5  6  7  5  6  6  6
++         6  6  6  6  7  7  7  7  6  5  5  6  5  8  5  5  6
++         6  4  7  6  6  6  6  6  4  5  6  5  6  6  5  6  5
++         6  6  5  5  6  6  6  9  6  7  6  6  8  4  6  6  7
++         8  7  6  6  5  5  7  7  7  7  7  5  7  6  0  0  0
%c M  cc GPS ccc cccc cccc cccc cccc ccccc ccccc ccccc ccccc
%c cc cc ccc ccc cccc cccc cccc cccc ccccc ccccc ccccc ccccc
%f  0.0000000  0.000000000  0.00000000000  0.000000000000000
%f  0.0000000  0.000000000  0.00000000000  0.000000000000000
%i    0    0    0    0      0      0      0      0         0
%i    0    0    0    0      0      0      0      0         0
/* INFORMATION & ANALYSIS CENTER (IAC)      ULTRA-RAPID DATA
/* S/V CLOCKS ARE ALIGNED TO GNSS TIME                      
/* G:C1WC2W R:C1PC2P E:C1XC5X C:C2IC6I J:C1CC2S             
/* PCV:IGS14_2134 OL/AL:FES2004  NONE     YN ORB:CoN CLK:CoN
*  2021 03 18 20 30  0.00000000
PC06  -6879.336255  29129.994757  30330.177845    189.887059
PC07 -23131.181584  24475.904818 -25403.332157    -30.575234
PC08 -19113.646243  37225.004640  -3043.931774   -899.331659
PC09   5222.665732  36852.983081  20495.759412    659.209828
PC10  -7460.413428  26949.783709 -31440.644358    -69.712910
PC11  -3089.315881 -24989.019873  12130.710673   -861.174687
PC12  10274.511617 -12794.707670  22609.391864    874.859696
PC13  -9490.067115  39467.473436  11020.845204    185.585239
PC14   2159.713644 -15817.180941 -22857.197799    243.699947
PC16  -2604.438203  31288.213514  28349.811139   -740.657952
PC19   9145.912589  15344.111577  21465.343263    766.425798
PC20 -11542.358917  14076.138211  21179.834288   -932.455449
PC21  26320.922402  -4259.898955  -8176.232243   -892.018469
PC22  25129.363335   7785.674144   9274.173884   -922.413029
PC23 -14851.596090  -6864.128821  22604.198587   -878.520114
PC24  14525.039895 -23796.006189   1525.998094   -786.607970
PC25  -1309.281370 -21569.727200  17661.135350   -946.423148
PC26  20190.708618 -13135.440019 -14131.542214    933.570564
PC27 -15926.106558   3077.439507 -22721.873795    500.815619
PC28 -18235.727317 -16200.946871 -13552.279006    -96.861815
PC29  10816.383475  25488.840283  -3514.591987    366.782634
PC30  -3922.722629  20283.445730 -18775.454257    453.402254
PC32 -26299.679111   4493.118827   8215.336728   -915.655673
PC33  -9189.672651 -15314.032291 -21435.868323   -946.119743
PC34   3479.566732 -20712.031721  18353.688786   -716.015429
PC35  18781.260658  15835.562017  13272.041202   -368.557420
PC36    516.337041  21757.310839 -17446.905022   -740.299691
PC37 -20484.378926  11849.500781  14785.278948   -878.613359
PC38 -17000.603440  38520.860220      8.731368    136.656705
PC39   -187.302049  31459.270145  28154.642183     29.504742
PC40 -11920.218850  21927.425678 -34012.034600    142.271484
PC41 -25045.565948  -7830.729783  -9433.870707   -933.304336
PC42  12256.757851 -13881.381281 -20824.708889   -939.618006
PC43 -10350.489105 -25595.665188   3949.191772   -645.458955
PC44  16038.959866  -3381.152175  22582.724535     92.581776
PC45  14831.133132   6661.125753 -22683.970277    390.246336
PC46 -13899.057288  24053.334376  -2423.582121    356.918459
PE01 -11113.268688 -12560.126841  24385.628286  -1068.321412
PE02  11254.914231  12473.221312 -24377.987641    205.942573
PE03  20329.415857  19410.099246   9263.453266   -410.348463
PE04 -26946.126284  -8286.593125   9030.015988   -731.675134
PE05   1682.042034  19301.240837  22382.541636   -295.979298
PE07  17748.676805  -7936.208234 -22309.518066   -514.434530
PE08  26931.500895   7962.069944  -9332.179324   6031.177783
PE09 -17530.111034   8028.641487  22468.539254   5730.408141
PE11 -12896.274692  17788.134347 -19848.304896   6192.436213
PE12 -16012.014699  -4770.550848 -24426.070975   5303.730383
PE13  12945.480651 -17393.665969  20153.788786    413.737973
PE14 -16707.486897  12249.194990 -24910.907037  -1366.363768
PE15  15961.495643   4717.334614  24489.582701    823.987830
PE18   6945.653449 -14126.636888  17930.467556  -1494.215246
PE19 -18695.659341 -19988.425425 -11262.642980    230.134041
PE21   8809.993658 -20297.857463  19658.358137   -654.351386
PE24 -24693.262591  16072.700779  -2704.537714   -799.803509
PE25  -8982.807312  20317.988152 -19556.977046   -528.781220
PE26   2016.667840 -29354.192458   3219.530021   2026.761120
PE27  24330.174598 -16532.561325   3363.626918      7.642033
PE30  25173.052955  -2241.322514 -15438.677905   3096.356539
PE31 -25443.977405   3067.788532  14807.643424   -479.298764
PE33  -9574.109101 -24010.478420 -14400.339310   -466.660204
PG01  13526.613836 -17510.621252  14183.150761    738.142609
PG02 -13873.287070  -6598.217353 -21007.337032   -587.393906
PG03  21452.260205 -13117.375071  -8460.543351   -111.767635
PG04  13485.135316  -7872.668023 -21486.819795   -186.956872
PG05 -25114.605162   2668.716512  -8674.217609    -36.590854
PG06  -7264.444532 -19282.304343 -16663.493866      1.560894
PG07   6468.046784 -25433.554070  -1201.315633     94.191510
PG08  18902.194888   -695.526192  18766.257434    -14.235183
PG09   2759.765788 -16805.629338 -20432.430407   -332.141608
PG10   5764.722315  13995.750917  21944.850145    -83.746577
PG11  12065.673641 -12737.267343  19588.574010      4.815653
PG12 -24001.224016   9856.041893  -5540.636834    -15.778725
PG13 -20632.083180  -9731.999890  13575.607610    109.384296
PG14  -3705.318130 -14825.328183  21712.900296     99.775816
PG15 -18975.895311   3112.255982  18105.385381   -162.238197
PG16  24501.484405   1965.411511 -10883.297896   -296.041541
PG17 -11874.876595 -21667.250075  10170.323178    411.865091
PG18  -4750.209571  26030.870307   1890.927168    350.767725
PG19 -17229.390039 -20232.989660   1139.741786    -24.619925
PG20  -8934.032484  18256.331164  16888.752360    524.069558
PG21  15470.045907  -9635.105353  19891.785499    104.172899
PG22  24611.250084  -9646.425996   1384.732350   -657.629648
PG23  -6743.264942  16746.136247  19446.854429    117.157997
PG24      0.000000      0.000000      0.000000 999999.999999
PG25 -13496.471883  16286.494427 -16152.713703    101.418265
PG26  18138.891795   7300.299599 -18149.153217     59.913465
PG27  22219.965096  10766.749769  10103.082342    -96.465733
PG28  -6026.258736 -14132.129769  22211.155470    600.192331
PG29  -3187.778758  16444.727988 -20645.166268   -314.229627
PG30  -2136.794513 -24209.156379  10490.809449   -400.333968
PG31   9294.009272  16733.179524 -18295.588355   -106.382006
PG32  14501.649096  20749.582590   8421.716697     21.382777
PJ01 -28807.444549  22255.679608  26217.222523   -356.229979
PJ02 -35777.244059  22068.625867   1213.424217      3.611114
PJ03 -20460.608334  22654.403823 -24492.555065     -1.937866
PR01  24897.989989   5509.468709   -160.092757     76.585435
PR02  16641.297063  -4898.847328 -18681.982969    471.282553
PR03  -1175.888977 -11422.931288 -22726.480920     32.623311
PR04 -18139.773859 -11234.537216 -13944.110449     78.467842
PR05 -24872.137869  -4940.670951   2668.825785     68.385061
PR07   1951.568051  11593.102512  22682.052820    -42.555167
PR08  18134.615203  11330.955426  13980.007271    -58.007963
PR09 -18280.880905  17652.727015   2602.552290    -16.467920
PR11   5450.521378   9964.156174 -22833.964069      2.149889
PR12  17111.217582  -5482.781151 -18096.730303    213.640333
PR13  18341.127564 -17441.531362  -3210.184173    -52.176358
PR14   8727.975278 -19222.807201  14314.918299     62.152803
PR15  -5732.854024  -9809.672620  22851.832685    104.847114
PR16 -17349.161835   6472.826794  17449.166116    -12.692072
PR17  -2397.536213 -23671.477152   9249.216740    409.095157
PR18  -9814.459182 -22207.644734  -7705.917412     70.232223
PR19 -11826.066475 -10064.106205 -20232.810461   -136.239969
PR20  -7153.053405  11168.570834 -21790.009418    -45.525539
PR21   2964.064251  23983.807951  -8134.330428   -195.357271
PR22  10042.254908  21806.200190   8760.287832   -103.286052
PR24   7137.180080 -12025.681956  21353.362619     35.498075
EOF
